CCSDS_OMM_VERS = 2.0
CREATION_DATE  = 
ORIGINATOR     = 

OBJECT_NAME    = SILVERSAT
OBJECT_ID      = 1998-067XV
CENTER_NAME    = EARTH
REF_FRAME      = TEME
TIME_SYSTEM    = UTC
MEAN_ELEMENT_THEORY = SGP/SGP4

EPOCH          = 2026-02-04T17:32:35.077920
MEAN_MOTION    = 15.61983699
ECCENTRICITY   = .00027331
INCLINATION    = 51.6265
RA_OF_ASC_NODE = 232.3240
ARG_OF_PERICENTER = 198.6299
MEAN_ANOMALY   = 161.4595

EPHEMERIS_TYPE = 0
CLASSIFICATION_TYPE = U
NORAD_CAT_ID   = 66909
ELEMENT_SET_NO = 999
REV_AT_EPOCH   = 1002
BSTAR          = .12469289E-2
MEAN_MOTION_DOT = .111974E-2
MEAN_MOTION_DDOT = 0

CCSDS_OMM_VERS = 2.0
CREATION_DATE  = 
ORIGINATOR     = 

OBJECT_NAME    = 1998-067XW
OBJECT_ID      = 1998-067XW
CENTER_NAME    = EARTH
REF_FRAME      = TEME
TIME_SYSTEM    = UTC
MEAN_ELEMENT_THEORY = SGP/SGP4

EPOCH          = 2026-02-04T19:22:04.610784
MEAN_MOTION    = 15.60755016
ECCENTRICITY   = .0001037
INCLINATION    = 51.6258
RA_OF_ASC_NODE = 232.0768
ARG_OF_PERICENTER = 199.7580
MEAN_ANOMALY   = 160.3373

EPHEMERIS_TYPE = 0
CLASSIFICATION_TYPE = U
NORAD_CAT_ID   = 66910
ELEMENT_SET_NO = 999
REV_AT_EPOCH   = 1003
BSTAR          = .10582591E-2
MEAN_MOTION_DOT = .90282E-3
MEAN_MOTION_DDOT = 0

CCSDS_OMM_VERS = 2.0
CREATION_DATE  = 
ORIGINATOR     = 

OBJECT_NAME    = 1998-067XX
OBJECT_ID      = 1998-067XX
CENTER_NAME    = EARTH
REF_FRAME      = TEME
TIME_SYSTEM    = UTC
MEAN_ELEMENT_THEORY = SGP/SGP4

EPOCH          = 2026-02-04T16:53:56.749056
MEAN_MOTION    = 15.63087495
ECCENTRICITY   = .00023038
INCLINATION    = 51.6239
RA_OF_ASC_NODE = 232.1391
ARG_OF_PERICENTER = 228.4224
MEAN_ANOMALY   = 131.6573

EPHEMERIS_TYPE = 0
CLASSIFICATION_TYPE = U
NORAD_CAT_ID   = 66911
ELEMENT_SET_NO = 999
REV_AT_EPOCH   = 1001
BSTAR          = .13061482E-2
MEAN_MOTION_DOT = .12265E-2
MEAN_MOTION_DDOT = 0

CCSDS_OMM_VERS = 2.0
CREATION_DATE  = 
ORIGINATOR     = 

OBJECT_NAME    = 1998-067XY
OBJECT_ID      = 1998-067XY
CENTER_NAME    = EARTH
REF_FRAME      = TEME
TIME_SYSTEM    = UTC
MEAN_ELEMENT_THEORY = SGP/SGP4

EPOCH          = 2026-02-05T05:56:32.038656
MEAN_MOTION    = 15.58194839
ECCENTRICITY   = .00015867
INCLINATION    = 51.6272
RA_OF_ASC_NODE = 230.5253
ARG_OF_PERICENTER = 147.2352
MEAN_ANOMALY   = 212.8739

EPHEMERIS_TYPE = 0
CLASSIFICATION_TYPE = U
NORAD_CAT_ID   = 66912
ELEMENT_SET_NO = 999
REV_AT_EPOCH   = 1008
BSTAR          = .12332363E-2
MEAN_MOTION_DOT = .95558E-3
MEAN_MOTION_DDOT = 0

